ORBITAL FACTORY 2 (OF-2)
1 45113U 19071C   20259.80732941  .00001326  00000-0  51592-4 0  9992
2 45113  51.6437 286.9836 0013217  25.1131 335.0492 15.33646831 34992
M2 PATHFINDER           
1 45727U 20037E   20260.05915188  .00000400  00000-0  45784-4 0  9990
2 45727  97.7035  78.0685 0012984   3.7356 356.3963 14.91226279 11527
